[{"OBJECT_NAME":"STARLINK-34932","OBJECT_ID":"2025-175F","EPOCH":"2026-03-09T15:51:11.767968","MEAN_MOTION":15.0566431,"ECCENTRICITY":0.0002,"INCLINATION":97.6026,"RA_OF_ASC_NODE":302.5887,"ARG_OF_PERICENTER":99.1446,"MEAN_ANOMALY":261.0007,"EPHEMERIS_TYPE":0,"CLASSIFICATION_TYPE":"U","NORAD_CAT_ID":65179,"ELEMENT_SET_NO":999,"REV_AT_EPOCH":3263,"BSTAR":0.0013425075,"MEAN_MOTION_DOT":0.00019371,"MEAN_MOTION_DDOT":0},{"OBJECT_NAME":"FENGYUN 1C DEB","OBJECT_ID":"1999-025DWK","EPOCH":"2026-03-04T22:59:43.178496","MEAN_MOTION":14.75372926,"ECCENTRICITY":0.0170684,"INCLINATION":99.0756,"RA_OF_ASC_NODE":108.4567,"ARG_OF_PERICENTER":229.4091,"MEAN_ANOMALY":129.2157,"EPHEMERIS_TYPE":0,"CLASSIFICATION_TYPE":"U","NORAD_CAT_ID":36258,"ELEMENT_SET_NO":999,"REV_AT_EPOCH":92034,"BSTAR":0.000371885,"MEAN_MOTION_DOT":3.121e-5,"MEAN_MOTION_DDOT":0}]
